[{"place_name" : "Loja Centro SP", "product_ean" : "7891001234567", "min_quantity" : 50, "max_quantity" : 150}, {"place_name" : "Loja Centro SP", "product_ean" : "7891001234571", "min_quantity" : 20, "max_quantity" : 100}, {"place_name" : "Loja Centro SP", "product_ean" : "7891001234578", "min_quantity" : 30, "max_quantity" : 200}, {"place_name" : "Loja Centro SP", "product_ean" : "7891001234591", "min_quantity" : 15, "max_quantity" : 120}, {"place_name" : "Loja Centro SP", "product_ean" : "7891001234611", "min_quantity" : 10, "max_quantity" : 150}, {"place_name" : "Loja Norte RJ", "product_ean" : "7891001234573", "min_quantity" : 40, "max_quantity" : 180}, {"place_name" : "Loja Norte RJ", "product_ean" : "7891001234582", "min_quantity" : 20, "max_quantity" : 90}, {"place_name" : "Loja Norte RJ", "product_ean" : "7891001234601", "min_quantity" : 15, "max_quantity" : 100}, {"place_name" : "Loja Norte RJ", "product_ean" : "7891001234616", "min_quantity" : 25, "max_quantity" : 130}, {"place_name" : "Loja Norte RJ", "product_ean" : "7891001234569", "min_quantity" : 30, "max_quantity" : 200}, {"place_name" : "Loja Sul BA", "product_ean" : "7891001234575", "min_quantity" : 25, "max_quantity" : 80}, {"place_name" : "Loja Sul BA", "product_ean" : "7891001234588", "min_quantity" : 20, "max_quantity" : 70}, {"place_name" : "Loja Sul BA", "product_ean" : "7891001234613", "min_quantity" : 30, "max_quantity" : 150}, {"place_name" : "Loja Sul BA", "product_ean" : "7891001234632", "min_quantity" : 40, "max_quantity" : 200}, {"place_name" : "Loja Sul BA", "product_ean" : "7891001234655", "min_quantity" : 10, "max_quantity" : 100}, {"place_name" : "Loja Leste DF", "product_ean" : "7891001234570", "min_quantity" : 20, "max_quantity" : 120}, {"place_name" : "Loja Leste DF", "product_ean" : "7891001234584", "min_quantity" : 15, "max_quantity" : 90}, {"place_name" : "Loja Leste DF", "product_ean" : "7891001234603", "min_quantity" : 30, "max_quantity" : 180}, {"place_name" : "Loja Leste DF", "product_ean" : "7891001234622", "min_quantity" : 10, "max_quantity" : 130}, {"place_name" : "Loja Leste DF", "product_ean" : "7891001234577", "min_quantity" : 25, "max_quantity" : 150}, {"place_name" : "Loja Oeste CE", "product_ean" : "7891001234579", "min_quantity" : 50, "max_quantity" : 200}, {"place_name" : "Loja Oeste CE", "product_ean" : "7891001234595", "min_quantity" : 30, "max_quantity" : 100}, {"place_name" : "Loja Oeste CE", "product_ean" : "7891001234621", "min_quantity" : 20, "max_quantity" : 120}, {"place_name" : "Loja Oeste CE", "product_ean" : "7891001234665", "min_quantity" : 10, "max_quantity" : 80}, {"place_name" : "Loja Oeste CE", "product_ean" : "7891001234573", "min_quantity" : 15, "max_quantity" : 150}, {"place_name" : "Loja Central PA", "product_ean" : "7891001234581", "min_quantity" : 25, "max_quantity" : 110}, {"place_name" : "Loja Central PA", "product_ean" : "7891001234614", "min_quantity" : 30, "max_quantity" : 140}, {"place_name" : "Loja Central PA", "product_ean" : "7891001234636", "min_quantity" : 20, "max_quantity" : 100}, {"place_name" : "Loja Central PA", "product_ean" : "7891001234665", "min_quantity" : 15, "max_quantity" : 150}, {"place_name" : "Loja Central PA", "product_ean" : "7891001234655", "min_quantity" : 10, "max_quantity" : 50}, {"place_name" : "Loja Zona Sul AM", "product_ean" : "7891001234569", "min_quantity" : 40, "max_quantity" : 180}, {"place_name" : "Loja Zona Sul AM", "product_ean" : "7891001234597", "min_quantity" : 20, "max_quantity" : 120}, {"place_name" : "Loja Zona Sul AM", "product_ean" : "7891001234626", "min_quantity" : 25, "max_quantity" : 130}, {"place_name" : "Loja Zona Sul AM", "product_ean" : "7891001234664", "min_quantity" : 15, "max_quantity" : 90}, {"place_name" : "Loja Zona Sul AM", "product_ean" : "7891001234616", "min_quantity" : 30, "max_quantity" : 200}, {"place_name" : "Loja Zona Oeste MG", "product_ean" : "7891001234572", "min_quantity" : 20, "max_quantity" : 100}, {"place_name" : "Loja Zona Oeste MG", "product_ean" : "7891001234592", "min_quantity" : 15, "max_quantity" : 90}, {"place_name" : "Loja Zona Oeste MG", "product_ean" : "7891001234654", "min_quantity" : 25, "max_quantity" : 120}, {"place_name" : "Loja Zona Oeste MG", "product_ean" : "7891001234666", "min_quantity" : 30, "max_quantity" : 150}, {"place_name" : "Loja Zona Oeste MG", "product_ean" : "7891001234571", "min_quantity" : 40, "max_quantity" : 180}, {"place_name" : "Loja Zona Norte PR", "product_ean" : "7891001234577", "min_quantity" : 10, "max_quantity" : 100}, {"place_name" : "Loja Zona Norte PR", "product_ean" : "7891001234608", "min_quantity" : 15, "max_quantity" : 120}, {"place_name" : "Loja Zona Norte PR", "product_ean" : "7891001234644", "min_quantity" : 20, "max_quantity" : 150}, {"place_name" : "Loja Zona Norte PR", "product_ean" : "7891001234663", "min_quantity" : 30, "max_quantity" : 200}, {"place_name" : "Loja Zona Norte PR", "product_ean" : "7891001234588", "min_quantity" : 40, "max_quantity" : 130}, {"place_name" : "Loja Nordeste PE", "product_ean" : "7891001234586", "min_quantity" : 50, "max_quantity" : 200}, {"place_name" : "Loja Nordeste PE", "product_ean" : "7891001234624", "min_quantity" : 30, "max_quantity" : 130}, {"place_name" : "Loja Nordeste PE", "product_ean" : "7891001234657", "min_quantity" : 15, "max_quantity" : 90}, {"place_name" : "Loja Nordeste PE", "product_ean" : "7891001234662", "min_quantity" : 10, "max_quantity" : 80}, {"place_name" : "Loja Nordeste PE", "product_ean" : "7891001234567", "min_quantity" : 25, "max_quantity" : 150}, {"place_name" : "Galpão Centro SP", "product_ean" : "7891001234579", "min_quantity" : 20, "max_quantity" : 110}, {"place_name" : "Galpão Centro SP", "product_ean" : "7891001234595", "min_quantity" : 30, "max_quantity" : 150}, {"place_name" : "Galpão Centro SP", "product_ean" : "7891001234621", "min_quantity" : 15, "max_quantity" : 120}, {"place_name" : "Galpão Centro SP", "product_ean" : "7891001234665", "min_quantity" : 10, "max_quantity" : 100}, {"place_name" : "Galpão Centro SP", "product_ean" : "7891001234636", "min_quantity" : 40, "max_quantity" : 170}, {"place_name" : "Galpão Industrial RJ", "product_ean" : "7891001234569", "min_quantity" : 20, "max_quantity" : 130}, {"place_name" : "Galpão Industrial RJ", "product_ean" : "7891001234597", "min_quantity" : 25, "max_quantity" : 150}, {"place_name" : "Galpão Industrial RJ", "product_ean" : "7891001234626", "min_quantity" : 15, "max_quantity" : 120}, {"place_name" : "Galpão Industrial RJ", "product_ean" : "7891001234689", "min_quantity" : 30, "max_quantity" : 200}, {"place_name" : "Galpão Industrial RJ", "product_ean" : "7891001234654", "min_quantity" : 10, "max_quantity" : 80}, {"place_name" : "Galpão Norte BA", "product_ean" : "7891001234572", "min_quantity" : 15, "max_quantity" : 100}, {"place_name" : "Galpão Norte BA", "product_ean" : "7891001234592", "min_quantity" : 20, "max_quantity" : 110}, {"place_name" : "Galpão Norte BA", "product_ean" : "7891001234654", "min_quantity" : 30, "max_quantity" : 160}, {"place_name" : "Galpão Norte BA", "product_ean" : "7891001234661", "min_quantity" : 40, "max_quantity" : 200}, {"place_name" : "Galpão Norte BA", "product_ean" : "7891001234660", "min_quantity" : 25, "max_quantity" : 130}, {"place_name" : "Galpão Leste DF", "product_ean" : "7891001234577", "min_quantity" : 10, "max_quantity" : 150}, {"place_name" : "Galpão Leste DF", "product_ean" : "7891001234608", "min_quantity" : 20, "max_quantity" : 120}, {"place_name" : "Galpão Leste DF", "product_ean" : "7891001234644", "min_quantity" : 30, "max_quantity" : 180}, {"place_name" : "Galpão Leste DF", "product_ean" : "7891001234659", "min_quantity" : 15, "max_quantity" : 90}, {"place_name" : "Galpão Leste DF", "product_ean" : "7891001234567", "min_quantity" : 40, "max_quantity" : 170}, {"place_name" : "Galpão Oeste CE", "product_ean" : "7891001234586", "min_quantity" : 25, "max_quantity" : 140}, {"place_name" : "Galpão Oeste CE", "product_ean" : "7891001234624", "min_quantity" : 10, "max_quantity" : 100}, {"place_name" : "Galpão Oeste CE", "product_ean" : "7891001234657", "min_quantity" : 15, "max_quantity" : 130}, {"place_name" : "Galpão Oeste CE", "product_ean" : "7891001234658", "min_quantity" : 20, "max_quantity" : 110}, {"place_name" : "Galpão Oeste CE", "product_ean" : "7891001234569", "min_quantity" : 30, "max_quantity" : 150}, {"place_name" : "Galpão Central PA", "product_ean" : "7891001234581", "min_quantity" : 40, "max_quantity" : 180}, {"place_name" : "Galpão Central PA", "product_ean" : "7891001234614", "min_quantity" : 20, "max_quantity" : 130}, {"place_name" : "Galpão Central PA", "product_ean" : "7891001234636", "min_quantity" : 10, "max_quantity" : 80}, {"place_name" : "Galpão Central PA", "product_ean" : "7891001234657", "min_quantity" : 25, "max_quantity" : 150}, {"place_name" : "Galpão Central PA", "product_ean" : "7891001234656", "min_quantity" : 30, "max_quantity" : 200}, {"place_name" : "Galpão Zona Norte AM", "product_ean" : "7891001234579", "min_quantity" : 20, "max_quantity" : 100}, {"place_name" : "Galpão Zona Norte AM", "product_ean" : "7891001234595", "min_quantity" : 15, "max_quantity" : 120}, {"place_name" : "Galpão Zona Norte AM", "product_ean" : "7891001234621", "min_quantity" : 30, "max_quantity" : 180}, {"place_name" : "Galpão Zona Norte AM", "product_ean" : "7891001234665", "min_quantity" : 10, "max_quantity" : 90}, {"place_name" : "Galpão Zona Norte AM", "product_ean" : "7891001234572", "min_quantity" : 40, "max_quantity" : 170}, {"place_name" : "Galpão Zona Sul MG", "product_ean" : "7891001234569", "min_quantity" : 25, "max_quantity" : 130}, {"place_name" : "Galpão Zona Sul MG", "product_ean" : "7891001234597", "min_quantity" : 15, "max_quantity" : 110}, {"place_name" : "Galpão Zona Sul MG", "product_ean" : "7891001234626", "min_quantity" : 20, "max_quantity" : 150}, {"place_name" : "Galpão Zona Sul MG", "product_ean" : "7891001234655", "min_quantity" : 30, "max_quantity" : 200}, {"place_name" : "Galpão Zona Sul MG", "product_ean" : "7891001234654", "min_quantity" : 10, "max_quantity" : 80}, {"place_name" : "Galpão Zona Oeste PR", "product_ean" : "7891001234572", "min_quantity" : 15, "max_quantity" : 90}, {"place_name" : "Galpão Zona Oeste PR", "product_ean" : "7891001234592", "min_quantity" : 20, "max_quantity" : 100}, {"place_name" : "Galpão Zona Oeste PR", "product_ean" : "7891001234654", "min_quantity" : 40, "max_quantity" : 180}, {"place_name" : "Galpão Zona Oeste PR", "product_ean" : "7891001234653", "min_quantity" : 25, "max_quantity" : 150}, {"place_name" : "Galpão Zona Oeste PR", "product_ean" : "7891001234652", "min_quantity" : 30, "max_quantity" : 200}, {"place_name" : "Galpão Nordeste PE", "product_ean" : "7891001234577", "min_quantity" : 10, "max_quantity" : 100}, {"place_name" : "Galpão Nordeste PE", "product_ean" : "7891001234608", "min_quantity" : 15, "max_quantity" : 130}, {"place_name" : "Galpão Nordeste PE", "product_ean" : "7891001234644", "min_quantity" : 20, "max_quantity" : 140}, {"place_name" : "Galpão Nordeste PE", "product_ean" : "7891001234651", "min_quantity" : 30, "max_quantity" : 180}, {"place_name" : "Galpão Nordeste PE", "product_ean" : "7891001234657", "min_quantity" : 25, "max_quantity" : 120}, {"place_name" : "Loja Centro SP", "product_ean" : "7891001234787", "min_quantity" : 20, "max_quantity" : 150}, {"place_name" : "Loja Centro SP", "product_ean" : "7891001234788", "min_quantity" : 15, "max_quantity" : 180}, {"place_name" : "Loja Centro SP", "product_ean" : "7891001234789", "min_quantity" : 25, "max_quantity" : 200}, {"place_name" : "Loja Centro SP", "product_ean" : "7891001234790", "min_quantity" : 10, "max_quantity" : 170}, {"place_name" : "Loja Centro SP", "product_ean" : "7891001234791", "min_quantity" : 30, "max_quantity" : 130}, {"place_name" : "Loja Norte RJ", "product_ean" : "7891001234792", "min_quantity" : 40, "max_quantity" : 180}, {"place_name" : "Loja Norte RJ", "product_ean" : "7891001234793", "min_quantity" : 20, "max_quantity" : 150}, {"place_name" : "Loja Norte RJ", "product_ean" : "7891001234794", "min_quantity" : 15, "max_quantity" : 140}, {"place_name" : "Loja Norte RJ", "product_ean" : "7891001234795", "min_quantity" : 30, "max_quantity" : 200}, {"place_name" : "Loja Norte RJ", "product_ean" : "7891001234796", "min_quantity" : 25, "max_quantity" : 170}, {"place_name" : "Loja Sul BA", "product_ean" : "7891001234697", "min_quantity" : 10, "max_quantity" : 120}, {"place_name" : "Loja Sul BA", "product_ean" : "7891001234698", "min_quantity" : 40, "max_quantity" : 150}, {"place_name" : "Loja Sul BA", "product_ean" : "7891001234699", "min_quantity" : 30, "max_quantity" : 180}, {"place_name" : "Loja Sul BA", "product_ean" : "7891001234700", "min_quantity" : 25, "max_quantity" : 200}, {"place_name" : "Loja Sul BA", "product_ean" : "7891001234701", "min_quantity" : 15, "max_quantity" : 140}, {"place_name" : "Loja Leste DF", "product_ean" : "7891001234702", "min_quantity" : 10, "max_quantity" : 170}, {"place_name" : "Loja Leste DF", "product_ean" : "7891001234703", "min_quantity" : 20, "max_quantity" : 130}, {"place_name" : "Loja Leste DF", "product_ean" : "7891001234704", "min_quantity" : 40, "max_quantity" : 200}, {"place_name" : "Loja Leste DF", "product_ean" : "7891001234705", "min_quantity" : 30, "max_quantity" : 150}, {"place_name" : "Loja Leste DF", "product_ean" : "7891001234706", "min_quantity" : 15, "max_quantity" : 120}, {"place_name" : "Loja Oeste CE", "product_ean" : "7891001234707", "min_quantity" : 25, "max_quantity" : 180}, {"place_name" : "Loja Oeste CE", "product_ean" : "7891001234708", "min_quantity" : 20, "max_quantity" : 170}, {"place_name" : "Loja Oeste CE", "product_ean" : "7891001234709", "min_quantity" : 40, "max_quantity" : 200}, {"place_name" : "Loja Oeste CE", "product_ean" : "7891001234710", "min_quantity" : 10, "max_quantity" : 150}, {"place_name" : "Loja Oeste CE", "product_ean" : "7891001234711", "min_quantity" : 15, "max_quantity" : 140}, {"place_name" : "Loja Central PA", "product_ean" : "7891001234712", "min_quantity" : 30, "max_quantity" : 180}, {"place_name" : "Loja Central PA", "product_ean" : "7891001234713", "min_quantity" : 25, "max_quantity" : 200}, {"place_name" : "Loja Central PA", "product_ean" : "7891001234714", "min_quantity" : 40, "max_quantity" : 130}, {"place_name" : "Loja Central PA", "product_ean" : "7891001234715", "min_quantity" : 20, "max_quantity" : 170}, {"place_name" : "Loja Central PA", "product_ean" : "7891001234716", "min_quantity" : 15, "max_quantity" : 120}, {"place_name" : "Loja Zona Sul AM", "product_ean" : "7891001234717", "min_quantity" : 10, "max_quantity" : 200}, {"place_name" : "Loja Zona Sul AM", "product_ean" : "7891001234718", "min_quantity" : 30, "max_quantity" : 140}, {"place_name" : "Loja Zona Sul AM", "product_ean" : "7891001234719", "min_quantity" : 20, "max_quantity" : 150}, {"place_name" : "Loja Zona Sul AM", "product_ean" : "7891001234720", "min_quantity" : 25, "max_quantity" : 180}, {"place_name" : "Loja Zona Sul AM", "product_ean" : "7891001234721", "min_quantity" : 40, "max_quantity" : 170}, {"place_name" : "Loja Zona Oeste MG", "product_ean" : "7891001234722", "min_quantity" : 15, "max_quantity" : 140}, {"place_name" : "Loja Zona Oeste MG", "product_ean" : "7891001234723", "min_quantity" : 30, "max_quantity" : 200}, {"place_name" : "Loja Zona Oeste MG", "product_ean" : "7891001234724", "min_quantity" : 25, "max_quantity" : 150}, {"place_name" : "Loja Zona Oeste MG", "product_ean" : "7891001234725", "min_quantity" : 40, "max_quantity" : 180}, {"place_name" : "Loja Zona Oeste MG", "product_ean" : "7891001234726", "min_quantity" : 20, "max_quantity" : 170}, {"place_name" : "Loja Zona Norte PR", "product_ean" : "7891001234727", "min_quantity" : 10, "max_quantity" : 150}, {"place_name" : "Loja Zona Norte PR", "product_ean" : "7891001234728", "min_quantity" : 15, "max_quantity" : 200}, {"place_name" : "Loja Zona Norte PR", "product_ean" : "7891001234729", "min_quantity" : 40, "max_quantity" : 140}, {"place_name" : "Loja Zona Norte PR", "product_ean" : "7891001234730", "min_quantity" : 30, "max_quantity" : 180}, {"place_name" : "Loja Zona Norte PR", "product_ean" : "7891001234731", "min_quantity" : 20, "max_quantity" : 170}, {"place_name" : "Loja Nordeste PE", "product_ean" : "7891001234732", "min_quantity" : 25, "max_quantity" : 130}, {"place_name" : "Loja Nordeste PE", "product_ean" : "7891001234733", "min_quantity" : 30, "max_quantity" : 150}, {"place_name" : "Loja Nordeste PE", "product_ean" : "7891001234734", "min_quantity" : 10, "max_quantity" : 200}, {"place_name" : "Loja Nordeste PE", "product_ean" : "7891001234735", "min_quantity" : 40, "max_quantity" : 180}, {"place_name" : "Loja Nordeste PE", "product_ean" : "7891001234736", "min_quantity" : 20, "max_quantity" : 140}, {"place_name" : "Galpão Centro SP", "product_ean" : "7891001234737", "min_quantity" : 15, "max_quantity" : 170}, {"place_name" : "Galpão Centro SP", "product_ean" : "7891001234738", "min_quantity" : 40, "max_quantity" : 200}, {"place_name" : "Galpão Centro SP", "product_ean" : "7891001234739", "min_quantity" : 25, "max_quantity" : 150}, {"place_name" : "Galpão Centro SP", "product_ean" : "7891001234740", "min_quantity" : 10, "max_quantity" : 180}, {"place_name" : "Galpão Centro SP", "product_ean" : "7891001234741", "min_quantity" : 30, "max_quantity" : 140}, {"place_name" : "Galpão Industrial RJ", "product_ean" : "7891001234742", "min_quantity" : 20, "max_quantity" : 130}, {"place_name" : "Galpão Industrial RJ", "product_ean" : "7891001234743", "min_quantity" : 15, "max_quantity" : 150}, {"place_name" : "Galpão Industrial RJ", "product_ean" : "7891001234744", "min_quantity" : 40, "max_quantity" : 200}, {"place_name" : "Galpão Industrial RJ", "product_ean" : "7891001234745", "min_quantity" : 30, "max_quantity" : 180}, {"place_name" : "Galpão Industrial RJ", "product_ean" : "7891001234746", "min_quantity" : 25, "max_quantity" : 170}, {"place_name" : "Galpão Norte BA", "product_ean" : "7891001234747", "min_quantity" : 10, "max_quantity" : 140}, {"place_name" : "Galpão Norte BA", "product_ean" : "7891001234748", "min_quantity" : 20, "max_quantity" : 150}, {"place_name" : "Galpão Norte BA", "product_ean" : "7891001234749", "min_quantity" : 15, "max_quantity" : 130}, {"place_name" : "Galpão Norte BA", "product_ean" : "7891001234750", "min_quantity" : 30, "max_quantity" : 200}, {"place_name" : "Galpão Norte BA", "product_ean" : "7891001234751", "min_quantity" : 40, "max_quantity" : 180}, {"place_name" : "Galpão Leste DF", "product_ean" : "7891001234752", "min_quantity" : 25, "max_quantity" : 170}, {"place_name" : "Galpão Leste DF", "product_ean" : "7891001234753", "min_quantity" : 10, "max_quantity" : 140}, {"place_name" : "Galpão Leste DF", "product_ean" : "7891001234754", "min_quantity" : 30, "max_quantity" : 150}, {"place_name" : "Galpão Leste DF", "product_ean" : "7891001234755", "min_quantity" : 15, "max_quantity" : 200}, {"place_name" : "Galpão Leste DF", "product_ean" : "7891001234756", "min_quantity" : 40, "max_quantity" : 130}, {"place_name" : "Galpão Oeste CE", "product_ean" : "7891001234757", "min_quantity" : 20, "max_quantity" : 170}, {"place_name" : "Galpão Oeste CE", "product_ean" : "7891001234758", "min_quantity" : 25, "max_quantity" : 150}, {"place_name" : "Galpão Oeste CE", "product_ean" : "7891001234759", "min_quantity" : 40, "max_quantity" : 180}, {"place_name" : "Galpão Oeste CE", "product_ean" : "7891001234760", "min_quantity" : 15, "max_quantity" : 200}, {"place_name" : "Galpão Oeste CE", "product_ean" : "7891001234761", "min_quantity" : 10, "max_quantity" : 140}, {"place_name" : "Galpão Central PA", "product_ean" : "7891001234762", "min_quantity" : 20, "max_quantity" : 150}, {"place_name" : "Galpão Central PA", "product_ean" : "7891001234763", "min_quantity" : 30, "max_quantity" : 200}, {"place_name" : "Galpão Central PA", "product_ean" : "7891001234764", "min_quantity" : 40, "max_quantity" : 130}, {"place_name" : "Galpão Central PA", "product_ean" : "7891001234765", "min_quantity" : 15, "max_quantity" : 170}, {"place_name" : "Galpão Central PA", "product_ean" : "7891001234766", "min_quantity" : 25, "max_quantity" : 180}, {"place_name" : "Galpão Zona Norte AM", "product_ean" : "7891001234767", "min_quantity" : 10, "max_quantity" : 200}, {"place_name" : "Galpão Zona Norte AM", "product_ean" : "7891001234768", "min_quantity" : 15, "max_quantity" : 130}, {"place_name" : "Galpão Zona Norte AM", "product_ean" : "7891001234769", "min_quantity" : 40, "max_quantity" : 150}, {"place_name" : "Galpão Zona Norte AM", "product_ean" : "7891001234770", "min_quantity" : 20, "max_quantity" : 180}, {"place_name" : "Galpão Zona Norte AM", "product_ean" : "7891001234771", "min_quantity" : 25, "max_quantity" : 170}, {"place_name" : "Galpão Zona Sul MG", "product_ean" : "7891001234772", "min_quantity" : 30, "max_quantity" : 140}, {"place_name" : "Galpão Zona Sul MG", "product_ean" : "7891001234773", "min_quantity" : 15, "max_quantity" : 130}, {"place_name" : "Galpão Zona Sul MG", "product_ean" : "7891001234774", "min_quantity" : 20, "max_quantity" : 150}, {"place_name" : "Galpão Zona Sul MG", "product_ean" : "7891001234775", "min_quantity" : 25, "max_quantity" : 180}, {"place_name" : "Galpão Zona Sul MG", "product_ean" : "7891001234776", "min_quantity" : 10, "max_quantity" : 200}, {"place_name" : "Galpão Zona Oeste PR", "product_ean" : "7891001234777", "min_quantity" : 40, "max_quantity" : 150}, {"place_name" : "Galpão Zona Oeste PR", "product_ean" : "7891001234778", "min_quantity" : 15, "max_quantity" : 170}, {"place_name" : "Galpão Zona Oeste PR", "product_ean" : "7891001234779", "min_quantity" : 30, "max_quantity" : 180}, {"place_name" : "Galpão Zona Oeste PR", "product_ean" : "7891001234780", "min_quantity" : 20, "max_quantity" : 140}, {"place_name" : "Galpão Zona Oeste PR", "product_ean" : "7891001234781", "min_quantity" : 10, "max_quantity" : 200}, {"place_name" : "Galpão Nordeste PE", "product_ean" : "7891001234782", "min_quantity" : 15, "max_quantity" : 130}, {"place_name" : "Galpão Nordeste PE", "product_ean" : "7891001234783", "min_quantity" : 40, "max_quantity" : 150}, {"place_name" : "Galpão Nordeste PE", "product_ean" : "7891001234784", "min_quantity" : 30, "max_quantity" : 200}, {"place_name" : "Galpão Nordeste PE", "product_ean" : "7891001234785", "min_quantity" : 20, "max_quantity" : 170}, {"place_name" : "Galpão Nordeste PE", "product_ean" : "7891001234786", "min_quantity" : 25, "max_quantity" : 180}, {"place_name" : "Loja Centro SP", "product_ean" : "7891001234697", "min_quantity" : 10, "max_quantity" : 180}, {"place_name" : "Loja Centro SP", "product_ean" : "7891001234698", "min_quantity" : 15, "max_quantity" : 200}, {"place_name" : "Loja Centro SP", "product_ean" : "7891001234699", "min_quantity" : 20, "max_quantity" : 150}, {"place_name" : "Loja Centro SP", "product_ean" : "7891001234700", "min_quantity" : 25, "max_quantity" : 170}, {"place_name" : "Loja Centro SP", "product_ean" : "7891001234701", "min_quantity" : 30, "max_quantity" : 140}, {"place_name" : "Loja Norte RJ", "product_ean" : "7891001234702", "min_quantity" : 40, "max_quantity" : 200}, {"place_name" : "Loja Norte RJ", "product_ean" : "7891001234703", "min_quantity" : 15, "max_quantity" : 150}, {"place_name" : "Loja Norte RJ", "product_ean" : "7891001234704", "min_quantity" : 10, "max_quantity" : 180}, {"place_name" : "Loja Norte RJ", "product_ean" : "7891001234705", "min_quantity" : 30, "max_quantity" : 200}, {"place_name" : "Loja Norte RJ", "product_ean" : "7891001234706", "min_quantity" : 20, "max_quantity" : 170}, {"place_name" : "Loja Sul BA", "product_ean" : "7891001234707", "min_quantity" : 25, "max_quantity" : 150}, {"place_name" : "Loja Sul BA", "product_ean" : "7891001234708", "min_quantity" : 10, "max_quantity" : 140}, {"place_name" : "Loja Sul BA", "product_ean" : "7891001234709", "min_quantity" : 15, "max_quantity" : 200}, {"place_name" : "Loja Sul BA", "product_ean" : "7891001234710", "min_quantity" : 20, "max_quantity" : 130}, {"place_name" : "Loja Sul BA", "product_ean" : "7891001234711", "min_quantity" : 40, "max_quantity" : 180}, {"place_name" : "Loja Leste DF", "product_ean" : "7891001234712", "min_quantity" : 30, "max_quantity" : 170}, {"place_name" : "Loja Leste DF", "product_ean" : "7891001234713", "min_quantity" : 25, "max_quantity" : 140}, {"place_name" : "Loja Leste DF", "product_ean" : "7891001234714", "min_quantity" : 10, "max_quantity" : 200}, {"place_name" : "Loja Leste DF", "product_ean" : "7891001234715", "min_quantity" : 15, "max_quantity" : 150}, {"place_name" : "Loja Leste DF", "product_ean" : "7891001234716", "min_quantity" : 20, "max_quantity" : 130}, {"place_name" : "Loja Oeste CE", "product_ean" : "7891001234717", "min_quantity" : 40, "max_quantity" : 180}, {"place_name" : "Loja Oeste CE", "product_ean" : "7891001234718", "min_quantity" : 10, "max_quantity" : 200}, {"place_name" : "Loja Oeste CE", "product_ean" : "7891001234719", "min_quantity" : 30, "max_quantity" : 170}, {"place_name" : "Loja Oeste CE", "product_ean" : "7891001234720", "min_quantity" : 15, "max_quantity" : 150}, {"place_name" : "Loja Oeste CE", "product_ean" : "7891001234721", "min_quantity" : 25, "max_quantity" : 140}, {"place_name" : "Loja Central PA", "product_ean" : "7891001234722", "min_quantity" : 10, "max_quantity" : 130}, {"place_name" : "Loja Central PA", "product_ean" : "7891001234723", "min_quantity" : 40, "max_quantity" : 200}, {"place_name" : "Loja Central PA", "product_ean" : "7891001234724", "min_quantity" : 30, "max_quantity" : 180}, {"place_name" : "Loja Central PA", "product_ean" : "7891001234725", "min_quantity" : 25, "max_quantity" : 170}, {"place_name" : "Loja Central PA", "product_ean" : "7891001234726", "min_quantity" : 15, "max_quantity" : 140}, {"place_name" : "Loja Zona Sul AM", "product_ean" : "7891001234727", "min_quantity" : 10, "max_quantity" : 150}, {"place_name" : "Loja Zona Sul AM", "product_ean" : "7891001234728", "min_quantity" : 20, "max_quantity" : 130}, {"place_name" : "Loja Zona Sul AM", "product_ean" : "7891001234729", "min_quantity" : 30, "max_quantity" : 200}, {"place_name" : "Loja Zona Sul AM", "product_ean" : "7891001234730", "min_quantity" : 40, "max_quantity" : 180}, {"place_name" : "Loja Zona Sul AM", "product_ean" : "7891001234731", "min_quantity" : 15, "max_quantity" : 170}, {"place_name" : "Loja Zona Oeste MG", "product_ean" : "7891001234732", "min_quantity" : 25, "max_quantity" : 150}, {"place_name" : "Loja Zona Oeste MG", "product_ean" : "7891001234733", "min_quantity" : 10, "max_quantity" : 140}, {"place_name" : "Loja Zona Oeste MG", "product_ean" : "7891001234734", "min_quantity" : 20, "max_quantity" : 130}, {"place_name" : "Loja Zona Oeste MG", "product_ean" : "7891001234735", "min_quantity" : 30, "max_quantity" : 200}, {"place_name" : "Loja Zona Oeste MG", "product_ean" : "7891001234736", "min_quantity" : 40, "max_quantity" : 180}, {"place_name" : "Loja Zona Norte PR", "product_ean" : "7891001234737", "min_quantity" : 15, "max_quantity" : 140}, {"place_name" : "Loja Zona Norte PR", "product_ean" : "7891001234738", "min_quantity" : 25, "max_quantity" : 150}, {"place_name" : "Loja Zona Norte PR", "product_ean" : "7891001234739", "min_quantity" : 10, "max_quantity" : 200}, {"place_name" : "Loja Zona Norte PR", "product_ean" : "7891001234740", "min_quantity" : 30, "max_quantity" : 170}, {"place_name" : "Loja Zona Norte PR", "product_ean" : "7891001234741", "min_quantity" : 20, "max_quantity" : 130}, {"place_name" : "Loja Nordeste PE", "product_ean" : "7891001234742", "min_quantity" : 40, "max_quantity" : 180}, {"place_name" : "Loja Nordeste PE", "product_ean" : "7891001234743", "min_quantity" : 15, "max_quantity" : 140}, {"place_name" : "Loja Nordeste PE", "product_ean" : "7891001234744", "min_quantity" : 25, "max_quantity" : 200}, {"place_name" : "Loja Nordeste PE", "product_ean" : "7891001234745", "min_quantity" : 30, "max_quantity" : 150}, {"place_name" : "Loja Nordeste PE", "product_ean" : "7891001234746", "min_quantity" : 10, "max_quantity" : 170}, {"place_name" : "Galpão Centro SP", "product_ean" : "7891001234747", "min_quantity" : 20, "max_quantity" : 130}, {"place_name" : "Galpão Centro SP", "product_ean" : "7891001234748", "min_quantity" : 40, "max_quantity" : 180}, {"place_name" : "Galpão Centro SP", "product_ean" : "7891001234749", "min_quantity" : 10, "max_quantity" : 200}, {"place_name" : "Galpão Centro SP", "product_ean" : "7891001234750", "min_quantity" : 30, "max_quantity" : 150}, {"place_name" : "Galpão Centro SP", "product_ean" : "7891001234751", "min_quantity" : 25, "max_quantity" : 140}, {"place_name" : "Galpão Industrial RJ", "product_ean" : "7891001234752", "min_quantity" : 15, "max_quantity" : 130}, {"place_name" : "Galpão Industrial RJ", "product_ean" : "7891001234753", "min_quantity" : 20, "max_quantity" : 200}, {"place_name" : "Galpão Industrial RJ", "product_ean" : "7891001234754", "min_quantity" : 10, "max_quantity" : 180}, {"place_name" : "Galpão Industrial RJ", "product_ean" : "7891001234755", "min_quantity" : 25, "max_quantity" : 170}, {"place_name" : "Galpão Industrial RJ", "product_ean" : "7891001234756", "min_quantity" : 30, "max_quantity" : 150}, {"place_name" : "Galpão Norte BA", "product_ean" : "7891001234757", "min_quantity" : 40, "max_quantity" : 140}, {"place_name" : "Galpão Norte BA", "product_ean" : "7891001234758", "min_quantity" : 15, "max_quantity" : 130}, {"place_name" : "Galpão Norte BA", "product_ean" : "7891001234759", "min_quantity" : 20, "max_quantity" : 200}, {"place_name" : "Galpão Norte BA", "product_ean" : "7891001234760", "min_quantity" : 10, "max_quantity" : 180}, {"place_name" : "Galpão Norte BA", "product_ean" : "7891001234761", "min_quantity" : 25, "max_quantity" : 170}, {"place_name" : "Galpão Leste DF", "product_ean" : "7891001234762", "min_quantity" : 30, "max_quantity" : 150}, {"place_name" : "Galpão Leste DF", "product_ean" : "7891001234763", "min_quantity" : 40, "max_quantity" : 200}, {"place_name" : "Galpão Leste DF", "product_ean" : "7891001234764", "min_quantity" : 20, "max_quantity" : 140}, {"place_name" : "Galpão Leste DF", "product_ean" : "7891001234765", "min_quantity" : 15, "max_quantity" : 130}, {"place_name" : "Galpão Leste DF", "product_ean" : "7891001234766", "min_quantity" : 25, "max_quantity" : 180}, {"place_name" : "Galpão Oeste CE", "product_ean" : "7891001234767", "min_quantity" : 30, "max_quantity" : 170}, {"place_name" : "Galpão Oeste CE", "product_ean" : "7891001234768", "min_quantity" : 10, "max_quantity" : 150}, {"place_name" : "Galpão Oeste CE", "product_ean" : "7891001234769", "min_quantity" : 40, "max_quantity" : 130}, {"place_name" : "Galpão Oeste CE", "product_ean" : "7891001234770", "min_quantity" : 20, "max_quantity" : 200}, {"place_name" : "Galpão Oeste CE", "product_ean" : "7891001234771", "min_quantity" : 25, "max_quantity" : 180}, {"place_name" : "Galpão Central PA", "product_ean" : "7891001234772", "min_quantity" : 15, "max_quantity" : 140}, {"place_name" : "Galpão Central PA", "product_ean" : "7891001234773", "min_quantity" : 40, "max_quantity" : 170}, {"place_name" : "Galpão Central PA", "product_ean" : "7891001234774", "min_quantity" : 10, "max_quantity" : 130}, {"place_name" : "Galpão Central PA", "product_ean" : "7891001234775", "min_quantity" : 30, "max_quantity" : 150}, {"place_name" : "Galpão Central PA", "product_ean" : "7891001234776", "min_quantity" : 20, "max_quantity" : 200}, {"place_name" : "Galpão Zona Norte AM", "product_ean" : "7891001234777", "min_quantity" : 25, "max_quantity" : 180}, {"place_name" : "Galpão Zona Norte AM", "product_ean" : "7891001234778", "min_quantity" : 15, "max_quantity" : 140}, {"place_name" : "Galpão Zona Norte AM", "product_ean" : "7891001234779", "min_quantity" : 30, "max_quantity" : 130}, {"place_name" : "Galpão Zona Norte AM", "product_ean" : "7891001234780", "min_quantity" : 40, "max_quantity" : 200}, {"place_name" : "Galpão Zona Norte AM", "product_ean" : "7891001234781", "min_quantity" : 10, "max_quantity" : 170}, {"place_name" : "Galpão Zona Sul MG", "product_ean" : "7891001234782", "min_quantity" : 20, "max_quantity" : 150}, {"place_name" : "Galpão Zona Sul MG", "product_ean" : "7891001234783", "min_quantity" : 25, "max_quantity" : 180}, {"place_name" : "Galpão Zona Sul MG", "product_ean" : "7891001234784", "min_quantity" : 30, "max_quantity" : 200}, {"place_name" : "Galpão Zona Sul MG", "product_ean" : "7891001234785", "min_quantity" : 40, "max_quantity" : 170}, {"place_name" : "Galpão Zona Sul MG", "product_ean" : "7891001234786", "min_quantity" : 15, "max_quantity" : 140}, {"place_name" : "Galpão Zona Oeste PR", "product_ean" : "7891001234787", "min_quantity" : 10, "max_quantity" : 130}, {"place_name" : "Galpão Zona Oeste PR", "product_ean" : "7891001234788", "min_quantity" : 20, "max_quantity" : 200}, {"place_name" : "Galpão Zona Oeste PR", "product_ean" : "7891001234789", "min_quantity" : 30, "max_quantity" : 180}, {"place_name" : "Galpão Zona Oeste PR", "product_ean" : "7891001234790", "min_quantity" : 40, "max_quantity" : 150}, {"place_name" : "Galpão Zona Oeste PR", "product_ean" : "7891001234791", "min_quantity" : 25, "max_quantity" : 170}, {"place_name" : "Galpão Nordeste PE", "product_ean" : "7891001234792", "min_quantity" : 15, "max_quantity" : 140}, {"place_name" : "Galpão Nordeste PE", "product_ean" : "7891001234793", "min_quantity" : 10, "max_quantity" : 130}, {"place_name" : "Galpão Nordeste PE", "product_ean" : "7891001234794", "min_quantity" : 20, "max_quantity" : 200}, {"place_name" : "Galpão Nordeste PE", "product_ean" : "7891001234795", "min_quantity" : 30, "max_quantity" : 180}, {"place_name" : "Galpão Nordeste PE", "product_ean" : "7891001234796", "min_quantity" : 40, "max_quantity" : 150}, {"place_name" : "Loja Centro SP", "product_ean" : "7891001234579", "min_quantity" : 10, "max_quantity" : 150}, {"place_name" : "Loja Centro SP", "product_ean" : "7891001234589", "min_quantity" : 20, "max_quantity" : 180}, {"place_name" : "Loja Centro SP", "product_ean" : "7891001234612", "min_quantity" : 15, "max_quantity" : 200}, {"place_name" : "Loja Centro SP", "product_ean" : "7891001234633", "min_quantity" : 25, "max_quantity" : 170}, {"place_name" : "Loja Centro SP", "product_ean" : "7891001234655", "min_quantity" : 30, "max_quantity" : 140}, {"place_name" : "Loja Norte RJ", "product_ean" : "7891001234587", "min_quantity" : 40, "max_quantity" : 150}, {"place_name" : "Loja Norte RJ", "product_ean" : "7891001234600", "min_quantity" : 10, "max_quantity" : 130}, {"place_name" : "Loja Norte RJ", "product_ean" : "7891001234644", "min_quantity" : 20, "max_quantity" : 180}, {"place_name" : "Loja Norte RJ", "product_ean" : "7891001234622", "min_quantity" : 15, "max_quantity" : 200}, {"place_name" : "Loja Norte RJ", "product_ean" : "7891001234656", "min_quantity" : 25, "max_quantity" : 140}, {"place_name" : "Loja Sul BA", "product_ean" : "7891001234577", "min_quantity" : 30, "max_quantity" : 170}, {"place_name" : "Loja Sul BA", "product_ean" : "7891001234605", "min_quantity" : 40, "max_quantity" : 150}, {"place_name" : "Loja Sul BA", "product_ean" : "7891001234628", "min_quantity" : 10, "max_quantity" : 130}, {"place_name" : "Loja Sul BA", "product_ean" : "7891001234639", "min_quantity" : 20, "max_quantity" : 200}, {"place_name" : "Loja Sul BA", "product_ean" : "7891001234650", "min_quantity" : 15, "max_quantity" : 180}, {"place_name" : "Loja Leste DF", "product_ean" : "7891001234585", "min_quantity" : 25, "max_quantity" : 170}, {"place_name" : "Loja Leste DF", "product_ean" : "7891001234608", "min_quantity" : 30, "max_quantity" : 140}, {"place_name" : "Loja Leste DF", "product_ean" : "7891001234643", "min_quantity" : 40, "max_quantity" : 200}, {"place_name" : "Loja Leste DF", "product_ean" : "7891001234657", "min_quantity" : 20, "max_quantity" : 150}, {"place_name" : "Loja Leste DF", "product_ean" : "7891001234670", "min_quantity" : 10, "max_quantity" : 180}, {"place_name" : "Loja Oeste CE", "product_ean" : "7891001234591", "min_quantity" : 15, "max_quantity" : 140}, {"place_name" : "Loja Oeste CE", "product_ean" : "7891001234616", "min_quantity" : 25, "max_quantity" : 150}, {"place_name" : "Loja Oeste CE", "product_ean" : "7891001234654", "min_quantity" : 30, "max_quantity" : 200}, {"place_name" : "Loja Oeste CE", "product_ean" : "7891001234662", "min_quantity" : 40, "max_quantity" : 180}, {"place_name" : "Loja Oeste CE", "product_ean" : "7891001234689", "min_quantity" : 20, "max_quantity" : 170}, {"place_name" : "Loja Central PA", "product_ean" : "7891001234580", "min_quantity" : 10, "max_quantity" : 140}, {"place_name" : "Loja Central PA", "product_ean" : "7891001234597", "min_quantity" : 30, "max_quantity" : 130}, {"place_name" : "Loja Central PA", "product_ean" : "7891001234613", "min_quantity" : 40, "max_quantity" : 200}, {"place_name" : "Loja Central PA", "product_ean" : "7891001234634", "min_quantity" : 20, "max_quantity" : 180}, {"place_name" : "Loja Central PA", "product_ean" : "7891001234658", "min_quantity" : 25, "max_quantity" : 170}, {"place_name" : "Loja Zona Sul AM", "product_ean" : "7891001234571", "min_quantity" : 15, "max_quantity" : 150}, {"place_name" : "Loja Zona Sul AM", "product_ean" : "7891001234592", "min_quantity" : 40, "max_quantity" : 140}, {"place_name" : "Loja Zona Sul AM", "product_ean" : "7891001234603", "min_quantity" : 30, "max_quantity" : 200}, {"place_name" : "Loja Zona Sul AM", "product_ean" : "7891001234645", "min_quantity" : 10, "max_quantity" : 180}, {"place_name" : "Loja Zona Sul AM", "product_ean" : "7891001234666", "min_quantity" : 20, "max_quantity" : 150}, {"place_name" : "Loja Zona Oeste MG", "product_ean" : "7891001234579", "min_quantity" : 25, "max_quantity" : 170}, {"place_name" : "Loja Zona Oeste MG", "product_ean" : "7891001234602", "min_quantity" : 15, "max_quantity" : 130}, {"place_name" : "Loja Zona Oeste MG", "product_ean" : "7891001234610", "min_quantity" : 10, "max_quantity" : 150}, {"place_name" : "Loja Zona Oeste MG", "product_ean" : "7891001234636", "min_quantity" : 30, "max_quantity" : 180}, {"place_name" : "Loja Zona Oeste MG", "product_ean" : "7891001234647", "min_quantity" : 40, "max_quantity" : 200}, {"place_name" : "Loja Zona Norte PR", "product_ean" : "7891001234585", "min_quantity" : 20, "max_quantity" : 170}, {"place_name" : "Loja Zona Norte PR", "product_ean" : "7891001234595", "min_quantity" : 15, "max_quantity" : 140}, {"place_name" : "Loja Zona Norte PR", "product_ean" : "7891001234620", "min_quantity" : 40, "max_quantity" : 150}, {"place_name" : "Loja Zona Norte PR", "product_ean" : "7891001234629", "min_quantity" : 25, "max_quantity" : 200}, {"place_name" : "Loja Zona Norte PR", "product_ean" : "7891001234648", "min_quantity" : 30, "max_quantity" : 130}, {"place_name" : "Loja Nordeste PE", "product_ean" : "7891001234582", "min_quantity" : 10, "max_quantity" : 180}, {"place_name" : "Loja Nordeste PE", "product_ean" : "7891001234609", "min_quantity" : 15, "max_quantity" : 140}, {"place_name" : "Loja Nordeste PE", "product_ean" : "7891001234627", "min_quantity" : 20, "max_quantity" : 170}, {"place_name" : "Loja Nordeste PE", "product_ean" : "7891001234638", "min_quantity" : 40, "max_quantity" : 150}, {"place_name" : "Loja Nordeste PE", "product_ean" : "7891001234651", "min_quantity" : 30, "max_quantity" : 200}, {"place_name" : "Galpão Centro SP", "product_ean" : "7891001234573", "min_quantity" : 10, "max_quantity" : 180}, {"place_name" : "Galpão Centro SP", "product_ean" : "7891001234599", "min_quantity" : 25, "max_quantity" : 140}, {"place_name" : "Galpão Centro SP", "product_ean" : "7891001234618", "min_quantity" : 20, "max_quantity" : 150}, {"place_name" : "Galpão Centro SP", "product_ean" : "7891001234631", "min_quantity" : 15, "max_quantity" : 170}, {"place_name" : "Galpão Centro SP", "product_ean" : "7891001234640", "min_quantity" : 30, "max_quantity" : 200}, {"place_name" : "Galpão Industrial RJ", "product_ean" : "7891001234575", "min_quantity" : 40, "max_quantity" : 150}, {"place_name" : "Galpão Industrial RJ", "product_ean" : "7891001234614", "min_quantity" : 10, "max_quantity" : 130}, {"place_name" : "Galpão Industrial RJ", "product_ean" : "7891001234642", "min_quantity" : 15, "max_quantity" : 200}, {"place_name" : "Galpão Industrial RJ", "product_ean" : "7891001234649", "min_quantity" : 20, "max_quantity" : 140}, {"place_name" : "Galpão Industrial RJ", "product_ean" : "7891001234667", "min_quantity" : 30, "max_quantity" : 170}, {"place_name" : "Galpão Norte BA", "product_ean" : "7891001234583", "min_quantity" : 25, "max_quantity" : 150}, {"place_name" : "Galpão Norte BA", "product_ean" : "7891001234607", "min_quantity" : 40, "max_quantity" : 180}, {"place_name" : "Galpão Norte BA", "product_ean" : "7891001234623", "min_quantity" : 10, "max_quantity" : 140}, {"place_name" : "Galpão Norte BA", "product_ean" : "7891001234630", "min_quantity" : 15, "max_quantity" : 130}, {"place_name" : "Galpão Norte BA", "product_ean" : "7891001234652", "min_quantity" : 30, "max_quantity" : 200}, {"place_name" : "Galpão Leste DF", "product_ean" : "7891001234588", "min_quantity" : 20, "max_quantity" : 150}, {"place_name" : "Galpão Leste DF", "product_ean" : "7891001234598", "min_quantity" : 40, "max_quantity" : 170}, {"place_name" : "Galpão Leste DF", "product_ean" : "7891001234621", "min_quantity" : 25, "max_quantity" : 180}, {"place_name" : "Galpão Leste DF", "product_ean" : "7891001234635", "min_quantity" : 30, "max_quantity" : 200}, {"place_name" : "Galpão Leste DF", "product_ean" : "7891001234660", "min_quantity" : 10, "max_quantity" : 140}, {"place_name" : "Galpão Oeste CE", "product_ean" : "7891001234572", "min_quantity" : 15, "max_quantity" : 150}, {"place_name" : "Galpão Oeste CE", "product_ean" : "7891001234606", "min_quantity" : 25, "max_quantity" : 200}, {"place_name" : "Galpão Oeste CE", "product_ean" : "7891001234619", "min_quantity" : 40, "max_quantity" : 180}, {"place_name" : "Galpão Oeste CE", "product_ean" : "7891001234626", "min_quantity" : 20, "max_quantity" : 140}, {"place_name" : "Galpão Oeste CE", "product_ean" : "7891001234646", "min_quantity" : 30, "max_quantity" : 170}, {"place_name" : "Galpão Central PA", "product_ean" : "7891001234586", "min_quantity" : 10, "max_quantity" : 200}, {"place_name" : "Galpão Central PA", "product_ean" : "7891001234601", "min_quantity" : 15, "max_quantity" : 150}, {"place_name" : "Galpão Central PA", "product_ean" : "7891001234612", "min_quantity" : 40, "max_quantity" : 130}, {"place_name" : "Galpão Central PA", "product_ean" : "7891001234641", "min_quantity" : 30, "max_quantity" : 140}, {"place_name" : "Galpão Central PA", "product_ean" : "7891001234663", "min_quantity" : 25, "max_quantity" : 180}, {"place_name" : "Galpão Zona Norte AM", "product_ean" : "7891001234576", "min_quantity" : 20, "max_quantity" : 170}, {"place_name" : "Galpão Zona Norte AM", "product_ean" : "7891001234594", "min_quantity" : 30, "max_quantity" : 150}, {"place_name" : "Galpão Zona Norte AM", "product_ean" : "7891001234615", "min_quantity" : 40, "max_quantity" : 200}, {"place_name" : "Galpão Zona Norte AM", "product_ean" : "7891001234625", "min_quantity" : 15, "max_quantity" : 140}, {"place_name" : "Galpão Zona Norte AM", "product_ean" : "7891001234653", "min_quantity" : 25, "max_quantity" : 170}, {"place_name" : "Galpão Zona Sul MG", "product_ean" : "7891001234570", "min_quantity" : 20, "max_quantity" : 180}, {"place_name" : "Galpão Zona Sul MG", "product_ean" : "7891001234590", "min_quantity" : 30, "max_quantity" : 200}, {"place_name" : "Galpão Zona Sul MG", "product_ean" : "7891001234604", "min_quantity" : 10, "max_quantity" : 150}, {"place_name" : "Galpão Zona Sul MG", "product_ean" : "7891001234617", "min_quantity" : 40, "max_quantity" : 130}, {"place_name" : "Galpão Zona Sul MG", "product_ean" : "7891001234665", "min_quantity" : 15, "max_quantity" : 170}, {"place_name" : "Galpão Zona Oeste PR", "product_ean" : "7891001234567", "min_quantity" : 25, "max_quantity" : 140}, {"place_name" : "Galpão Zona Oeste PR", "product_ean" : "7891001234574", "min_quantity" : 20, "max_quantity" : 150}, {"place_name" : "Galpão Zona Oeste PR", "product_ean" : "7891001234611", "min_quantity" : 40, "max_quantity" : 200}, {"place_name" : "Galpão Zona Oeste PR", "product_ean" : "7891001234632", "min_quantity" : 15, "max_quantity" : 130}, {"place_name" : "Galpão Zona Oeste PR", "product_ean" : "7891001234659", "min_quantity" : 30, "max_quantity" : 180}, {"place_name" : "Galpão Nordeste PE", "product_ean" : "7891001234568", "min_quantity" : 10, "max_quantity" : 170}, {"place_name" : "Galpão Nordeste PE", "product_ean" : "7891001234596", "min_quantity" : 40, "max_quantity" : 150}, {"place_name" : "Galpão Nordeste PE", "product_ean" : "7891001234605", "min_quantity" : 20, "max_quantity" : 130}, {"place_name" : "Galpão Nordeste PE", "product_ean" : "7891001234624", "min_quantity" : 30, "max_quantity" : 140}, {"place_name" : "Galpão Nordeste PE", "product_ean" : "7891001234668", "min_quantity" : 15, "max_quantity" : 200}, {"place_name" : "Loja Centro SP", "product_ean" : "7891001234676", "min_quantity" : 10, "max_quantity" : 150}, {"place_name" : "Loja Centro SP", "product_ean" : "7891001234677", "min_quantity" : 20, "max_quantity" : 180}, {"place_name" : "Loja Centro SP", "product_ean" : "7891001234678", "min_quantity" : 15, "max_quantity" : 200}, {"place_name" : "Loja Centro SP", "product_ean" : "7891001234679", "min_quantity" : 25, "max_quantity" : 170}, {"place_name" : "Loja Centro SP", "product_ean" : "7891001234680", "min_quantity" : 30, "max_quantity" : 140}, {"place_name" : "Loja Norte RJ", "product_ean" : "7891001234681", "min_quantity" : 40, "max_quantity" : 150}, {"place_name" : "Loja Norte RJ", "product_ean" : "7891001234682", "min_quantity" : 10, "max_quantity" : 130}, {"place_name" : "Loja Norte RJ", "product_ean" : "7891001234683", "min_quantity" : 20, "max_quantity" : 180}, {"place_name" : "Loja Norte RJ", "product_ean" : "7891001234684", "min_quantity" : 15, "max_quantity" : 200}, {"place_name" : "Loja Norte RJ", "product_ean" : "7891001234685", "min_quantity" : 25, "max_quantity" : 140}, {"place_name" : "Loja Sul BA", "product_ean" : "7891001234686", "min_quantity" : 30, "max_quantity" : 170}, {"place_name" : "Loja Sul BA", "product_ean" : "7891001234687", "min_quantity" : 40, "max_quantity" : 150}, {"place_name" : "Loja Sul BA", "product_ean" : "7891001234688", "min_quantity" : 10, "max_quantity" : 130}, {"place_name" : "Loja Sul BA", "product_ean" : "7891001234690", "min_quantity" : 20, "max_quantity" : 200}, {"place_name" : "Loja Sul BA", "product_ean" : "7891001234691", "min_quantity" : 15, "max_quantity" : 180}, {"place_name" : "Loja Leste DF", "product_ean" : "7891001234692", "min_quantity" : 25, "max_quantity" : 170}, {"place_name" : "Loja Leste DF", "product_ean" : "7891001234693", "min_quantity" : 30, "max_quantity" : 140}, {"place_name" : "Loja Leste DF", "product_ean" : "7891001234694", "min_quantity" : 40, "max_quantity" : 200}, {"place_name" : "Loja Leste DF", "product_ean" : "7891001234695", "min_quantity" : 20, "max_quantity" : 150}, {"place_name" : "Loja Leste DF", "product_ean" : "7891001234696", "min_quantity" : 10, "max_quantity" : 180}, {"place_name" : "Loja Oeste CE", "product_ean" : "7891001234697", "min_quantity" : 15, "max_quantity" : 140}, {"place_name" : "Loja Oeste CE", "product_ean" : "7891001234698", "min_quantity" : 25, "max_quantity" : 150}, {"place_name" : "Loja Oeste CE", "product_ean" : "7891001234699", "min_quantity" : 30, "max_quantity" : 200}, {"place_name" : "Loja Oeste CE", "product_ean" : "7891001234700", "min_quantity" : 40, "max_quantity" : 180}, {"place_name" : "Loja Oeste CE", "product_ean" : "7891001234701", "min_quantity" : 20, "max_quantity" : 170}, {"place_name" : "Loja Central PA", "product_ean" : "7891001234702", "min_quantity" : 10, "max_quantity" : 140}, {"place_name" : "Loja Central PA", "product_ean" : "7891001234703", "min_quantity" : 30, "max_quantity" : 130}, {"place_name" : "Loja Central PA", "product_ean" : "7891001234704", "min_quantity" : 40, "max_quantity" : 200}, {"place_name" : "Loja Central PA", "product_ean" : "7891001234705", "min_quantity" : 20, "max_quantity" : 180}, {"place_name" : "Loja Central PA", "product_ean" : "7891001234706", "min_quantity" : 25, "max_quantity" : 170}, {"place_name" : "Loja Zona Sul AM", "product_ean" : "7891001234707", "min_quantity" : 15, "max_quantity" : 150}, {"place_name" : "Loja Zona Sul AM", "product_ean" : "7891001234708", "min_quantity" : 40, "max_quantity" : 140}, {"place_name" : "Loja Zona Sul AM", "product_ean" : "7891001234709", "min_quantity" : 30, "max_quantity" : 200}, {"place_name" : "Loja Zona Sul AM", "product_ean" : "7891001234710", "min_quantity" : 10, "max_quantity" : 180}, {"place_name" : "Loja Zona Sul AM", "product_ean" : "7891001234711", "min_quantity" : 20, "max_quantity" : 150}, {"place_name" : "Loja Zona Oeste MG", "product_ean" : "7891001234712", "min_quantity" : 25, "max_quantity" : 170}, {"place_name" : "Loja Zona Oeste MG", "product_ean" : "7891001234713", "min_quantity" : 15, "max_quantity" : 130}, {"place_name" : "Loja Zona Oeste MG", "product_ean" : "7891001234714", "min_quantity" : 10, "max_quantity" : 150}, {"place_name" : "Loja Zona Oeste MG", "product_ean" : "7891001234715", "min_quantity" : 30, "max_quantity" : 180}, {"place_name" : "Loja Zona Oeste MG", "product_ean" : "7891001234716", "min_quantity" : 40, "max_quantity" : 200}, {"place_name" : "Loja Zona Norte PR", "product_ean" : "7891001234717", "min_quantity" : 20, "max_quantity" : 170}, {"place_name" : "Loja Zona Norte PR", "product_ean" : "7891001234718", "min_quantity" : 15, "max_quantity" : 140}, {"place_name" : "Loja Zona Norte PR", "product_ean" : "7891001234719", "min_quantity" : 40, "max_quantity" : 150}, {"place_name" : "Loja Zona Norte PR", "product_ean" : "7891001234720", "min_quantity" : 25, "max_quantity" : 200}, {"place_name" : "Loja Zona Norte PR", "product_ean" : "7891001234721", "min_quantity" : 30, "max_quantity" : 130}, {"place_name" : "Loja Nordeste PE", "product_ean" : "7891001234722", "min_quantity" : 10, "max_quantity" : 180}, {"place_name" : "Loja Nordeste PE", "product_ean" : "7891001234723", "min_quantity" : 15, "max_quantity" : 140}, {"place_name" : "Loja Nordeste PE", "product_ean" : "7891001234724", "min_quantity" : 20, "max_quantity" : 170}, {"place_name" : "Loja Nordeste PE", "product_ean" : "7891001234725", "min_quantity" : 40, "max_quantity" : 150}, {"place_name" : "Loja Nordeste PE", "product_ean" : "7891001234726", "min_quantity" : 30, "max_quantity" : 200}, {"place_name" : "Galpão Centro SP", "product_ean" : "7891001234727", "min_quantity" : 10, "max_quantity" : 180}, {"place_name" : "Galpão Centro SP", "product_ean" : "7891001234728", "min_quantity" : 25, "max_quantity" : 140}, {"place_name" : "Galpão Centro SP", "product_ean" : "7891001234729", "min_quantity" : 20, "max_quantity" : 150}, {"place_name" : "Galpão Centro SP", "product_ean" : "7891001234730", "min_quantity" : 15, "max_quantity" : 170}, {"place_name" : "Galpão Centro SP", "product_ean" : "7891001234731", "min_quantity" : 30, "max_quantity" : 200}, {"place_name" : "Galpão Industrial RJ", "product_ean" : "7891001234732", "min_quantity" : 40, "max_quantity" : 150}, {"place_name" : "Galpão Industrial RJ", "product_ean" : "7891001234733", "min_quantity" : 10, "max_quantity" : 130}, {"place_name" : "Galpão Industrial RJ", "product_ean" : "7891001234734", "min_quantity" : 15, "max_quantity" : 200}, {"place_name" : "Galpão Industrial RJ", "product_ean" : "7891001234735", "min_quantity" : 20, "max_quantity" : 140}, {"place_name" : "Galpão Industrial RJ", "product_ean" : "7891001234736", "min_quantity" : 30, "max_quantity" : 170}, {"place_name" : "Galpão Norte BA", "product_ean" : "7891001234737", "min_quantity" : 25, "max_quantity" : 150}, {"place_name" : "Galpão Norte BA", "product_ean" : "7891001234738", "min_quantity" : 40, "max_quantity" : 180}, {"place_name" : "Galpão Norte BA", "product_ean" : "7891001234739", "min_quantity" : 10, "max_quantity" : 140}, {"place_name" : "Galpão Norte BA", "product_ean" : "7891001234740", "min_quantity" : 15, "max_quantity" : 130}, {"place_name" : "Galpão Norte BA", "product_ean" : "7891001234741", "min_quantity" : 30, "max_quantity" : 200}, {"place_name" : "Galpão Leste DF", "product_ean" : "7891001234742", "min_quantity" : 20, "max_quantity" : 150}, {"place_name" : "Galpão Leste DF", "product_ean" : "7891001234743", "min_quantity" : 40, "max_quantity" : 170}, {"place_name" : "Galpão Leste DF", "product_ean" : "7891001234744", "min_quantity" : 25, "max_quantity" : 180}, {"place_name" : "Galpão Leste DF", "product_ean" : "7891001234745", "min_quantity" : 30, "max_quantity" : 200}, {"place_name" : "Galpão Leste DF", "product_ean" : "7891001234746", "min_quantity" : 10, "max_quantity" : 140}, {"place_name" : "Galpão Oeste CE", "product_ean" : "7891001234747", "min_quantity" : 15, "max_quantity" : 150}, {"place_name" : "Galpão Oeste CE", "product_ean" : "7891001234748", "min_quantity" : 25, "max_quantity" : 200}, {"place_name" : "Galpão Oeste CE", "product_ean" : "7891001234749", "min_quantity" : 40, "max_quantity" : 180}, {"place_name" : "Galpão Oeste CE", "product_ean" : "7891001234750", "min_quantity" : 20, "max_quantity" : 140}, {"place_name" : "Galpão Oeste CE", "product_ean" : "7891001234751", "min_quantity" : 30, "max_quantity" : 170}, {"place_name" : "Galpão Central PA", "product_ean" : "7891001234752", "min_quantity" : 10, "max_quantity" : 200}, {"place_name" : "Galpão Central PA", "product_ean" : "7891001234753", "min_quantity" : 15, "max_quantity" : 150}, {"place_name" : "Galpão Central PA", "product_ean" : "7891001234754", "min_quantity" : 40, "max_quantity" : 130}, {"place_name" : "Galpão Central PA", "product_ean" : "7891001234755", "min_quantity" : 30, "max_quantity" : 140}, {"place_name" : "Galpão Central PA", "product_ean" : "7891001234756", "min_quantity" : 25, "max_quantity" : 180}, {"place_name" : "Galpão Zona Norte AM", "product_ean" : "7891001234757", "min_quantity" : 20, "max_quantity" : 170}, {"place_name" : "Galpão Zona Norte AM", "product_ean" : "7891001234758", "min_quantity" : 30, "max_quantity" : 150}, {"place_name" : "Galpão Zona Norte AM", "product_ean" : "7891001234759", "min_quantity" : 40, "max_quantity" : 200}, {"place_name" : "Galpão Zona Norte AM", "product_ean" : "7891001234760", "min_quantity" : 15, "max_quantity" : 140}, {"place_name" : "Galpão Zona Norte AM", "product_ean" : "7891001234761", "min_quantity" : 25, "max_quantity" : 170}, {"place_name" : "Galpão Zona Sul MG", "product_ean" : "7891001234762", "min_quantity" : 20, "max_quantity" : 180}, {"place_name" : "Galpão Zona Sul MG", "product_ean" : "7891001234763", "min_quantity" : 30, "max_quantity" : 200}, {"place_name" : "Galpão Zona Sul MG", "product_ean" : "7891001234764", "min_quantity" : 10, "max_quantity" : 150}, {"place_name" : "Galpão Zona Sul MG", "product_ean" : "7891001234765", "min_quantity" : 40, "max_quantity" : 130}, {"place_name" : "Galpão Zona Sul MG", "product_ean" : "7891001234766", "min_quantity" : 15, "max_quantity" : 170}, {"place_name" : "Galpão Zona Oeste PR", "product_ean" : "7891001234767", "min_quantity" : 25, "max_quantity" : 140}, {"place_name" : "Galpão Zona Oeste PR", "product_ean" : "7891001234768", "min_quantity" : 20, "max_quantity" : 150}, {"place_name" : "Galpão Zona Oeste PR", "product_ean" : "7891001234769", "min_quantity" : 40, "max_quantity" : 200}, {"place_name" : "Galpão Zona Oeste PR", "product_ean" : "7891001234770", "min_quantity" : 15, "max_quantity" : 130}, {"place_name" : "Galpão Zona Oeste PR", "product_ean" : "7891001234771", "min_quantity" : 30, "max_quantity" : 180}, {"place_name" : "Galpão Nordeste PE", "product_ean" : "7891001234772", "min_quantity" : 10, "max_quantity" : 170}, {"place_name" : "Galpão Nordeste PE", "product_ean" : "7891001234773", "min_quantity" : 40, "max_quantity" : 150}, {"place_name" : "Galpão Nordeste PE", "product_ean" : "7891001234774", "min_quantity" : 20, "max_quantity" : 130}, {"place_name" : "Galpão Nordeste PE", "product_ean" : "7891001234775", "min_quantity" : 30, "max_quantity" : 140}, {"place_name" : "Galpão Nordeste PE", "product_ean" : "7891001234776", "min_quantity" : 15, "max_quantity" : 200}]